satname,norad_id,inclination_deg,eccentricity,mean_motion_rev_per_day,perigee_km,apogee_km,l1,l2
STARLINK-1255,45399,53.0431,0.000477,15.48089711,419.070855015867,425.5584859094879,1 45399U 20019AR  26048.63454696  .00086080  00000+0  16051-2 0  9991,2 45399  53.0431 198.9734 0004770 178.6482 181.4539 15.48089711327325
STARLINK-1260,45404,53.1613,0.0001557,15.30213359,474.10812143672774,476.24224285024775,1 45404U 20019AW  26048.71139203  .00003165  00000+0  11889-3 0  9999,2 45404  53.1613 222.0382 0001557  83.0766 277.0412 15.30213359326911
STARLINK-1263,45405,53.1587,0.0001245,15.30195293,474.3758796265065,476.0823677913104,1 45405U 20019AX  26048.69982145  .00000963  00000+0  44627-4 0  9998,2 45405  53.1587 222.1173 0001245  86.8790 273.2353 15.30195293326911
STARLINK-1265,45406,53.1607,0.0001327,15.30194266,474.32274807169233,476.14163225476113,1 45406U 20019AY  26048.64926655  .00000622  00000+0  33124-4 0  9990,2 45406  53.1607 222.4314 0001327 102.2340 257.8809 15.30194266326902
STARLINK-1278,45408,53.0468,0.0004253,15.51664065,408.9793611106352,414.75493864051896,1 45408U 20019BA  26048.71202612  .00079539  00000+0  13093-2 0  9994,2 45408  53.0468 226.8009 0004253 132.1353 228.0017 15.51664065326851
STARLINK-1296,45412,53.1587,0.0001164,15.30202159,474.41089361154445,476.00635247258833,1 45412U 20019BE  26048.70824700  .00001747  00000+0  71086-4 0  9990,2 45412  53.1587 222.0574 0001164  96.9962 263.1171 15.30202159326912
STARLINK-1298,45413,53.0391,0.0006726,15.86330007,308.0821993944046,317.0825551006774,1 45413U 20019BF  26048.91668981  .00253049  00000+0  96322-3 0  9994,2 45413  53.0391 154.7167 0006726 291.1655 243.3739 15.86330007  6034
STARLINK-1309,45414,53.0694,6.82e-05,15.50926543,413.5563502404375,414.4828003973107,1 45414U 20019BG  26048.67499782  .00075679  00000+0  12803-2 0  9991,2 45414  53.0694 220.0078 0000682 348.9719  11.1274 15.50926543326921
STARLINK-1316,45415,53.1606,0.0001314,15.30197629,474.32161741493564,476.1226801992416,1 45415U 20019BH  26048.68823851  .00000484  00000+0  28459-4 0  9999,2 45415  53.1606 222.2023 0001314  87.0933 273.0218 15.30197629326933
STARLINK-1318,45416,53.0316,0.0007266,16.00211729,268.99855421935354,278.6651953882183,1 45416U 20019BJ  26048.91668981  .00565863  15255-3  10677-2 0  9997,2 45416  53.0316 140.2069 0007266 339.6328 348.3307 16.00211729  6055
STARLINK-1286,45417,53.0482,0.0001929,15.49290656,417.488804275913,420.11106254482274,1 45417U 20019BK  26048.68280536  .00028266  00000+0  51472-3 0  9996,2 45417  53.0482 226.7330 0001929  83.2774 276.8453 15.49290656327127
STARLINK-1308,45419,53.0536,0.0002323,15.43608426,433.88720749067306,437.0528093067742,1 45419U 20019BM  26047.96531859  .00112312  00000+0  24313-2 0  9994,2 45419  53.0536 251.3253 0002323 147.6481 212.4667 15.43608426326467
STARLINK-1329,45531,53.0511,0.000508,15.52065784,407.2467409628398,414.14419475018167,1 45531U 20025A   26048.76971862  .00063050  00000+0  10266-2 0  9993,2 45531  53.0511 177.5198 0005080 189.1187 170.9730 15.52065784322356
STARLINK-1338,45532,53.0517,0.0004061,15.50899143,411.3412466040545,416.85790114935753,1 45532U 20025B   26048.68446259  .00073863  00000+0  12509-2 0  9997,2 45532  53.0517 181.1151 0004061 249.3009 110.7564 15.50899143322295
STARLINK-1350,45535,53.0726,0.0001042,15.35544365,458.59159742604515,460.0165201426962,1 45535U 20025E   26048.68244368  .00011822  00000+0  34766-3 0  9994,2 45535  53.0726 127.0649 0001042  63.9645 296.1464 15.35544365323085
STARLINK-1362,45538,53.1601,0.0001397,15.29361758,476.7612889474631,478.6768151284032,1 45538U 20025H   26048.66683103  .00000537  00000+0  30933-4 0  9993,2 45538  53.1601 193.9747 0001397  77.7074 282.4083 15.29361758322118
STARLINK-1368,45540,53.1582,0.000131,15.29365059,476.81107100894405,478.6073027099019,1 45540U 20025K   26048.80928626  .00003878  00000+0  14660-3 0  9993,2 45540  53.1582 193.6629 0001310  99.7084 260.4064 15.29365059322129
STARLINK-1371,45542,53.0523,0.000314,15.43832923,432.67019185049503,436.94872222551476,1 45542U 20025M   26048.63378637  .00033161  00000+0  72620-3 0  9995,2 45542  53.0523 184.9767 0003140 196.9292 163.1609 15.43832923322236
STARLINK-1372,45543,53.1622,0.0001493,15.30194497,474.2082925175291,476.2547083517584,1 45543U 20025N   26048.72127623  .00000657  00000+0  34332-4 0  9996,2 45543  53.1622 193.7732 0001493  75.9444 284.1723 15.30194497321213
STARLINK-1373,45544,53.0513,0.00042,15.46813417,423.1971508958359,428.91267210149545,1 45544U 20025P   26048.69389397  .00068428  00000+0  13386-2 0  9995,2 45544  53.0513 184.7548 0004200 277.5347  82.5183 15.46813417322249
STARLINK-1294,45551,53.0288,0.0009119,15.9475557,282.91579282555995,295.0753091720717,1 45551U 20025W   26048.91668981  .00435068  86596-4  11110-2 0  9997,2 45551  53.0288  76.4225 0009119  34.0885 285.3160 15.94755570  6045
STARLINK-1327,45555,53.05,0.0003494,15.50035684,414.2476952324314,418.99587267065726,1 45555U 20025AA  26048.62406781  .00072753  00000+0  12708-2 0  9990,2 45555  53.0500 163.1918 0003494 335.3413  24.7427 15.50035684322538
STARLINK-1356,45564,53.0528,0.0004263,15.42704261,435.2262351848458,441.03778614333714,1 45564U 20025AK  26048.59447342  .00059875  00000+0  13494-2 0  9997,2 45564  53.0528 169.3457 0004263 322.2629  37.8076 15.42704261322443
STARLINK-1357,45565,53.055,0.0002061,15.51363724,411.34387553433135,414.14307646653924,1 45565U 20025AL  26048.51129998  .00099144  00000+0  16440-2 0  9991,2 45565  53.0550 135.3145 0002061 343.8621  16.2321 15.51363724322923
STARLINK-1361,45567,53.0519,0.0005756,15.44232541,429.7131769882835,437.55488780077485,1 45567U 20025AN  26048.91668981  .00064706  00000+0  13832-2 0  9995,2 45567  53.0519 168.1894 0005756 320.4283 101.8425 15.44232541  5731
STARLINK-1363,45568,53.0457,0.0007747,15.72105738,347.66525425527925,358.09429164328776,1 45568U 20025AP  26048.91668981  .00124755  00000+0  92056-3 0  9993,2 45568  53.0457 136.1323 0007747 348.2552 154.0178 15.72105738  5995
STARLINK-1366,45569,53.0463,0.0007503,15.71726003,348.91279355939423,359.014984153212,1 45569U 20025AQ  26048.91668981  .00120453  00000+0  90390-3 0  9994,2 45569  53.0463 136.8117 0007503 343.6815 119.3497 15.71726003  6006
STARLINK-1376,45570,53.1618,0.0001338,15.29356547,476.8173097812032,478.6519410281617,1 45570U 20025AR  26048.72199509  .00000893  00000+0  43268-4 0  9998,2 45570  53.1618 170.4338 0001338  81.3959 278.7193 15.29356547322442
STARLINK-1320,45572,53.0487,0.0008157,15.64527346,369.09024134800893,380.1066539573094,1 45572U 20025AT  26048.39440862  .00172177  00000+0  17201-2 0  9995,2 45572  53.0487  85.5908 0008157 335.5829  24.4797 15.64527346323625
STARLINK-1321,45573,53.0508,0.0002342,15.44924072,430.0063399982446,433.19602136207504,1 45573U 20025AU  26048.59561476  .00063885  00000+0  13348-2 0  9996,2 45573  53.0508 154.4049 0002342 308.6629  51.4167 15.44924072322356
STARLINK-1331,45578,53.0548,0.0001664,15.44949448,430.3934852143857,432.6597412648716,1 45578U 20025AZ  26048.79669869  .00066422  00000+0  13859-2 0  9995,2 45578  53.0548 160.1071 0001664  40.8938 319.2193 15.44949448322604
STARLINK-1333,45580,53.1599,0.0001242,15.30198731,474.3676716295877,476.0700452248202,1 45580U 20025BB  26048.70703926  .00002235  00000+0  87553-4 0  9998,2 45580  53.1599 170.6241 0001242  90.3715 269.7428 15.30198731322442
STARLINK-1335,45581,53.0565,0.0001404,15.06394725,546.2554038933113,548.2000463081195,1 45581U 20025BC  26048.75940889  .00000352  00000+0  42534-4 0  9993,2 45581  53.0565 166.0889 0001404  95.9081 264.2068 15.06394725322500
STARLINK-1337,45582,53.055,0.0001941,15.54487131,402.3275424647627,404.9602298047612,1 45582U 20025BD  26048.77770596  .00086157  00000+0  12794-2 0  9992,2 45582  53.0550 158.2078 0001941  36.4974 323.6168 15.54487131322615
STARLINK-1347,45586,53.0485,0.0005233,15.50188999,412.61830882178765,419.72923447539506,1 45586U 20025BH  26048.59022779  .00076799  00000+0  13327-2 0  9993,2 45586  53.0485 126.2304 0005233 331.2196  28.8523 15.50188999323046
STARLINK-1364,45589,53.0522,0.0004832,15.4600376,425.14138458161233,431.7192512376396,1 45589U 20025BL  26048.66900925  .00062922  00000+0  12671-2 0  9996,2 45589  53.0522 158.9286 0004832 338.7876  21.2929 15.46003760322596
STARLINK-1365,45590,53.0535,4.12e-05,15.42911805,437.239933878127,437.80154407581904,1 45590U 20025BM  26048.79724887  .00036788  00000+0  82959-3 0  9991,2 45590  53.0535 188.1359 0000412 243.3870 116.7093 15.42911805322218
STARLINK-1443,45660,53.0546,0.0001331,15.06400051,546.2896377583711,548.1331655028844,1 45660U 20035D   26048.58709840  .00007839  00000+0  54455-3 0  9994,2 45660  53.0546 156.8642 0001331  69.8627 290.2505 15.06400051315705
STARLINK-1446,45663,53.0243,0.0001625,15.41990629,439.1269055272305,441.34287639179274,1 45663U 20035G   26048.40020734  .00020449  00000+0  48075-3 0  9999,2 45663  53.0243  95.6853 0001625 180.5858 179.5144 15.41990629316544
STARLINK-1448,45665,53.0532,0.0005312,15.48276086,418.1568095345747,425.3810295835128,1 45665U 20035J   26048.79340820  .00074593  00000+0  13850-2 0  9995,2 45665  53.0532 148.2259 0005312   8.6788 351.4310 15.48276086315839
STARLINK-1451,45668,53.0524,8.75e-05,15.09013507,538.6078301604275,539.8183664276285,1 45668U 20035M   26048.61899562  .00023020  00000+0  14527-2 0  9992,2 45668  53.0524 156.5995 0000875 238.5951 121.4954 15.09013507315717
STARLINK-1452,45669,53.0333,0.0007514,15.41771478,435.75718507251986,446.004805315697,1 45669U 20035N   26048.66937869  .00060884  00000+0  14144-2 0  9995,2 45669  53.0333 116.8673 0007514 333.2511  26.8104 15.41771478316271
STARLINK-1453,45670,53.0479,0.0007546,15.48451183,416.12547092234854,426.38711528029853,1 45670U 20035P   26048.65676229  .00083046  00000+0  15291-2 0  9995,2 45670  53.0479 109.4971 0007546 325.4006  34.6510 15.48451183316262
